CCSDS_OMM_VERS = 2.0
CREATION_DATE  = 
ORIGINATOR     = 

OBJECT_NAME    = COSMOS 1933
OBJECT_ID      = 1988-020A
CENTER_NAME    = EARTH
REF_FRAME      = TEME
TIME_SYSTEM    = UTC
MEAN_ELEMENT_THEORY = SGP/SGP4

EPOCH          = 2026-01-27T02:58:55.381440
MEAN_MOTION    = 15.17605002
ECCENTRICITY   = .00044237
INCLINATION    = 82.5145
RA_OF_ASC_NODE = 292.0283
ARG_OF_PERICENTER = 8.7172
MEAN_ANOMALY   = 351.4138

EPHEMERIS_TYPE = 0
CLASSIFICATION_TYPE = U
NORAD_CAT_ID   = 18958
ELEMENT_SET_NO = 999
REV_AT_EPOCH   = 4392
BSTAR          = .32199472E-3
MEAN_MOTION_DOT = .6502E-4
MEAN_MOTION_DDOT = 0

CCSDS_OMM_VERS = 2.0
CREATION_DATE  = 
ORIGINATOR     = 

OBJECT_NAME    = SL-3 R/B
OBJECT_ID      = 1988-032B
CENTER_NAME    = EARTH
REF_FRAME      = TEME
TIME_SYSTEM    = UTC
MEAN_ELEMENT_THEORY = SGP/SGP4

EPOCH          = 2026-01-27T12:17:37.098816
MEAN_MOTION    = 15.19340106
ECCENTRICITY   = .0027037
INCLINATION    = 97.5130
RA_OF_ASC_NODE = 10.9470
ARG_OF_PERICENTER = 21.6674
MEAN_ANOMALY   = 338.5698

EPHEMERIS_TYPE = 0
CLASSIFICATION_TYPE = U
NORAD_CAT_ID   = 19046
ELEMENT_SET_NO = 999
REV_AT_EPOCH   = 4585
BSTAR          = .43216E-3
MEAN_MOTION_DOT = .9154E-4
MEAN_MOTION_DDOT = 0

CCSDS_OMM_VERS = 2.0
CREATION_DATE  = 
ORIGINATOR     = 

OBJECT_NAME    = SL-16 R/B
OBJECT_ID      = 1988-039B
CENTER_NAME    = EARTH
REF_FRAME      = TEME
TIME_SYSTEM    = UTC
MEAN_ELEMENT_THEORY = SGP/SGP4

EPOCH          = 2026-01-27T11:27:54.925920
MEAN_MOTION    = 14.19609123
ECCENTRICITY   = .0020322
INCLINATION    = 71.0149
RA_OF_ASC_NODE = 155.6905
ARG_OF_PERICENTER = 38.4978
MEAN_ANOMALY   = 321.7592

EPHEMERIS_TYPE = 0
CLASSIFICATION_TYPE = U
NORAD_CAT_ID   = 19120
ELEMENT_SET_NO = 999
REV_AT_EPOCH   = 95253
BSTAR          = .50634E-4
MEAN_MOTION_DOT = .59E-6
MEAN_MOTION_DDOT = 0

CCSDS_OMM_VERS = 2.0
CREATION_DATE  = 
ORIGINATOR     = 

OBJECT_NAME    = COSMOS 1953
OBJECT_ID      = 1988-050A
CENTER_NAME    = EARTH
REF_FRAME      = TEME
TIME_SYSTEM    = UTC
MEAN_ELEMENT_THEORY = SGP/SGP4

EPOCH          = 2026-01-27T12:03:23.808096
MEAN_MOTION    = 15.27643551
ECCENTRICITY   = .001032
INCLINATION    = 82.5074
RA_OF_ASC_NODE = 199.6379
ARG_OF_PERICENTER = 270.0149
MEAN_ANOMALY   = 89.9907

EPHEMERIS_TYPE = 0
CLASSIFICATION_TYPE = U
NORAD_CAT_ID   = 19210
ELEMENT_SET_NO = 999
REV_AT_EPOCH   = 3149
BSTAR          = .44747E-3
MEAN_MOTION_DOT = .12143E-3
MEAN_MOTION_DDOT = 0

CCSDS_OMM_VERS = 2.0
CREATION_DATE  = 
ORIGINATOR     = 

OBJECT_NAME    = SL-8 R/B
OBJECT_ID      = 1988-053B
CENTER_NAME    = EARTH
REF_FRAME      = TEME
TIME_SYSTEM    = UTC
MEAN_ELEMENT_THEORY = SGP/SGP4

EPOCH          = 2026-01-27T11:54:48.233376
MEAN_MOTION    = 14.38889689
ECCENTRICITY   = .0019849
INCLINATION    = 74.0464
RA_OF_ASC_NODE = 188.3873
ARG_OF_PERICENTER = 16.2606
MEAN_ANOMALY   = 39.4718

EPHEMERIS_TYPE = 0
CLASSIFICATION_TYPE = U
NORAD_CAT_ID   = 19257
ELEMENT_SET_NO = 999
REV_AT_EPOCH   = 97067
BSTAR          = .14405E-3
MEAN_MOTION_DOT = .418E-5
MEAN_MOTION_DDOT = 0

CCSDS_OMM_VERS = 2.0
CREATION_DATE  = 
ORIGINATOR     = 

OBJECT_NAME    = COSMOS 1975
OBJECT_ID      = 1988-093A
CENTER_NAME    = EARTH
REF_FRAME      = TEME
TIME_SYSTEM    = UTC
MEAN_ELEMENT_THEORY = SGP/SGP4

EPOCH          = 2026-01-27T09:27:49.283424
MEAN_MOTION    = 15.27281605
ECCENTRICITY   = .0010744
INCLINATION    = 82.5212
RA_OF_ASC_NODE = 159.0997
ARG_OF_PERICENTER = 320.5163
MEAN_ANOMALY   = 39.5291

EPHEMERIS_TYPE = 0
CLASSIFICATION_TYPE = U
NORAD_CAT_ID   = 19573
ELEMENT_SET_NO = 999
REV_AT_EPOCH   = 1310
BSTAR          = .47537E-3
MEAN_MOTION_DOT = .1276E-3
MEAN_MOTION_DDOT = 0

CCSDS_OMM_VERS = 2.0
CREATION_DATE  = 
ORIGINATOR     = 

OBJECT_NAME    = SL-14 R/B
OBJECT_ID      = 1988-093B
CENTER_NAME    = EARTH
REF_FRAME      = TEME
TIME_SYSTEM    = UTC
MEAN_ELEMENT_THEORY = SGP/SGP4

EPOCH          = 2026-01-27T12:29:44.674944
MEAN_MOTION    = 14.85610365
ECCENTRICITY   = .0020962
INCLINATION    = 82.5292
RA_OF_ASC_NODE = 80.7017
ARG_OF_PERICENTER = 170.1874
MEAN_ANOMALY   = 310.4983

EPHEMERIS_TYPE = 0
CLASSIFICATION_TYPE = U
NORAD_CAT_ID   = 19574
ELEMENT_SET_NO = 999
REV_AT_EPOCH   = 99492
BSTAR          = .84634E-4
MEAN_MOTION_DOT = .759E-5
MEAN_MOTION_DDOT = 0

CCSDS_OMM_VERS = 2.0
CREATION_DATE  = 
ORIGINATOR     = 

OBJECT_NAME    = SL-16 R/B
OBJECT_ID      = 1988-102B
CENTER_NAME    = EARTH
REF_FRAME      = TEME
TIME_SYSTEM    = UTC
MEAN_ELEMENT_THEORY = SGP/SGP4

EPOCH          = 2026-01-27T07:13:14.938176
MEAN_MOTION    = 14.16147852
ECCENTRICITY   = .0011961
INCLINATION    = 70.9971
RA_OF_ASC_NODE = 238.5802
ARG_OF_PERICENTER = 70.6065
MEAN_ANOMALY   = 289.6350

EPHEMERIS_TYPE = 0
CLASSIFICATION_TYPE = U
NORAD_CAT_ID   = 19650
ELEMENT_SET_NO = 999
REV_AT_EPOCH   = 92103
BSTAR          = -.58098E-4
MEAN_MOTION_DOT = -.163E-5
MEAN_MOTION_DDOT = 0

CCSDS_OMM_VERS = 2.0
CREATION_DATE  = 
ORIGINATOR     = 

OBJECT_NAME    = INTERCOSMOS 24
OBJECT_ID      = 1989-080A
CENTER_NAME    = EARTH
REF_FRAME      = TEME
TIME_SYSTEM    = UTC
MEAN_ELEMENT_THEORY = SGP/SGP4

EPOCH          = 2026-01-27T08:11:23.393472
MEAN_MOTION    = 12.59503269
ECCENTRICITY   = .1188696
INCLINATION    = 82.6078
RA_OF_ASC_NODE = 131.3101
ARG_OF_PERICENTER = 28.7995
MEAN_ANOMALY   = 337.3723

EPHEMERIS_TYPE = 0
CLASSIFICATION_TYPE = U
NORAD_CAT_ID   = 20261
ELEMENT_SET_NO = 999
REV_AT_EPOCH   = 66159
BSTAR          = .19448E-3
MEAN_MOTION_DOT = .681E-5
MEAN_MOTION_DDOT = 0

CCSDS_OMM_VERS = 2.0
CREATION_DATE  = 
ORIGINATOR     = 

OBJECT_NAME    = SL-14 R/B
OBJECT_ID      = 1989-080C
CENTER_NAME    = EARTH
REF_FRAME      = TEME
TIME_SYSTEM    = UTC
MEAN_ELEMENT_THEORY = SGP/SGP4

EPOCH          = 2026-01-27T12:10:55.875360
MEAN_MOTION    = 12.50447934
ECCENTRICITY   = .1229462
INCLINATION    = 82.5926
RA_OF_ASC_NODE = 199.6274
ARG_OF_PERICENTER = 278.9458
MEAN_ANOMALY   = 67.4737

EPHEMERIS_TYPE = 0
CLASSIFICATION_TYPE = U
NORAD_CAT_ID   = 20262
ELEMENT_SET_NO = 999
REV_AT_EPOCH   = 65500
BSTAR          = .14162E-3
MEAN_MOTION_DOT = .465E-5
MEAN_MOTION_DDOT = 0

CCSDS_OMM_VERS = 2.0
CREATION_DATE  = 
ORIGINATOR     = 

OBJECT_NAME    = DELTA 1 R/B
OBJECT_ID      = 1989-089B
CENTER_NAME    = EARTH
REF_FRAME      = TEME
TIME_SYSTEM    = UTC
MEAN_ELEMENT_THEORY = SGP/SGP4

EPOCH          = 2026-01-27T12:15:08.147808
MEAN_MOTION    = 14.50624744
ECCENTRICITY   = .0067615
INCLINATION    = 97.0732
RA_OF_ASC_NODE = 241.4904
ARG_OF_PERICENTER = 252.5442
MEAN_ANOMALY   = 106.8357

EPHEMERIS_TYPE = 0
CLASSIFICATION_TYPE = U
NORAD_CAT_ID   = 20323
ELEMENT_SET_NO = 999
REV_AT_EPOCH   = 88976
BSTAR          = .19575E-3
MEAN_MOTION_DOT = .755E-5
MEAN_MOTION_DDOT = 0

CCSDS_OMM_VERS = 2.0
CREATION_DATE  = 
ORIGINATOR     = 

OBJECT_NAME    = ARIANE 40 R/B
OBJECT_ID      = 1990-005H
CENTER_NAME    = EARTH
REF_FRAME      = TEME
TIME_SYSTEM    = UTC
MEAN_ELEMENT_THEORY = SGP/SGP4

EPOCH          = 2026-01-27T09:30:53.920224
MEAN_MOTION    = 14.39840846
ECCENTRICITY   = .0009438
INCLINATION    = 98.3172
RA_OF_ASC_NODE = 89.2698
ARG_OF_PERICENTER = 335.2006
MEAN_ANOMALY   = 24.8727

EPHEMERIS_TYPE = 0
CLASSIFICATION_TYPE = U
NORAD_CAT_ID   = 20443
ELEMENT_SET_NO = 999
REV_AT_EPOCH   = 88686
BSTAR          = .18297E-3
MEAN_MOTION_DOT = .532E-5
MEAN_MOTION_DDOT = 0

