COSMOS 1933             
1 18958U 88020A   26027.12425210  .00006502  00000+0  32199-3 0  9992
2 18958  82.5145 292.0283 0004423   8.7172 351.4138 15.17605002 43922
SL-3 R/B                
1 19046U 88032B   26027.51223494  .00009154  00000+0  43216-3 0  9995
2 19046  97.5130  10.9470 0027037  21.6674 338.5698 15.19340106 45857
SL-16 R/B               
1 19120U 88039B   26027.47771905  .00000059  00000+0  50634-4 0  9993
2 19120  71.0149 155.6905 0020322  38.4978 321.7592 14.19609123952535
COSMOS 1953             
1 19210U 88050A   26027.50235889  .00012143  00000+0  44747-3 0  9990
2 19210  82.5074 199.6379 0010320 270.0149  89.9907 15.27643551 31492
SL-8 R/B                
1 19257U 88053B   26027.49639159  .00000418  00000+0  14405-3 0  9990
2 19257  74.0464 188.3873 0019849  16.2606  39.4718 14.38889689970676
COSMOS 1975             
1 19573U 88093A   26027.39432041  .00012760  00000+0  47537-3 0  9990
2 19573  82.5212 159.0997 0010744 320.5163  39.5291 15.27281605 13104
SL-14 R/B               
1 19574U 88093B   26027.52065596  .00000759  00000+0  84634-4 0  9998
2 19574  82.5292  80.7017 0020962 170.1874 310.4983 14.85610365994926
SL-16 R/B               
1 19650U 88102B   26027.30086734 -.00000163  00000+0 -58098-4 0  9993
2 19650  70.9971 238.5802 0011961  70.6065 289.6350 14.16147852921033
INTERCOSMOS 24          
1 20261U 89080A   26027.34124298  .00000681  00000+0  19448-3 0  9999
2 20261  82.6078 131.3101 1188696  28.7995 337.3723 12.59503269661590
SL-14 R/B               
1 20262U 89080C   26027.50759115  .00000465  00000+0  14162-3 0  9998
2 20262  82.5926 199.6274 1229462 278.9458  67.4737 12.50447934655002
DELTA 1 R/B             
1 20323U 89089B   26027.51051097  .00000755  00000+0  19575-3 0  9995
2 20323  97.0732 241.4904 0067615 252.5442 106.8357 14.50624744889768
ARIANE 40 R/B           
1 20443U 90005H   26027.39645741  .00000532  00000+0  18297-3 0  9992
2 20443  98.3172  89.2698 0009438 335.2006  24.8727 14.39840846886863
